MOLNIYA 2-9             
1 07276U 74026A   25109.53518956  .00000072  00000+0  00000+0 0  9997
2 07276  64.3506  84.6748 6568886 267.3273  21.7983  2.45097412274638
MOLNIYA 2-10            
1 07376U 74056A   25109.06283650 -.00001226  00000+0  00000+0 0  9992
2 07376  65.3725 344.1257 6825713 275.1085  16.4777  2.01124535371207
MOLNIYA 1-S             
1 07392U 74060A   25109.89847723  .00000150  00000+0  00000+0 0  9997
2 07392   2.4522 264.2218 0008225 255.7699  53.9940  1.00253545129921
MOLNIYA 1-29            
1 07780U 75036A   25109.04292230  .00000088  00000+0 -17284+0 0  9999
2 07780  63.6441 107.9561 6774457 281.7097  14.7251  2.00627730366418
MOLNIYA 2-14            
1 08195U 75081A   25109.86887341 -.00001108  00000+0  00000+0 0  9995
2 08195  64.0434  79.9136 6774087 286.7309  13.2734  2.02090366363858
MOLNIYA 1-32            
1 08601U 76006A   25110.39997282  .00001098  00000+0  00000+0 0  9998
2 08601  63.6465 177.2063 6724477 279.7588  15.7352  2.00054477359768
MOLNIYA 1-36            
1 09880U 77021A   25110.27895668  .00001375  00000+0  00000+0 0  9996
2 09880  63.5307 153.1011 6690112 284.6679  14.4167  2.00501883250276
MOLNIYA 3-8             
1 10455U 77105A   25104.34623320 -.00000289  00000+0  00000+0 0  9998
2 10455  63.7852 220.8518 6874039 280.4254  14.4158  2.00799244347842
MOLNIYA 1-40            
1 10925U 78055A   25109.47280706 -.00000221  00000+0  00000+0 0  9997
2 10925  64.0074 268.1815 6993953 277.9482  14.2652  2.00716277343488
MOLNIYA 3-10            
1 11057U 78095A   25108.71612559 -.00000192  00000+0 -32166-2 0  9998
2 11057  63.5604  30.7212 5613079 314.6567  11.4559  4.09913158426207
MOLNIYA 3-13            
1 11896U 80063A   25109.69082057 -.00000483  00000+0 -35328-2 0  9995
2 11896  63.6772 350.0511 7326492 278.2009  11.9721  2.00649622327907
MOLNIYA 1-52            
1 13012U 81123A   25109.08545069 -.00000290  00000+0 -91926-2 0  9997
2 13012  61.4420 134.3093 7259940 268.6646  15.3198  2.00384609317373
MOLNIYA 1-53            
1 13070U 82015A   25110.04263353  .00000858  00000+0 -31623-1 0  9999
2 13070  63.0480  91.3056 7019307 283.6998  12.5597  2.00849521316066
MOLNIYA 3-20            
1 13875U 83015A   25107.38429636  .00001587  00000+0  37008-1 0  9996
2 13875  61.9805 200.7709 7090745 268.7524  16.6968  2.00586682244470
MOLNIYA 1-63            
1 15429U 84124A   25106.25474054  .00001354  00000+0  00000+0 0  9996
2 15429  63.4264  50.4722 7193035 256.4439 220.1589  2.00498376295494
MOLNIYA 3-24            
1 15738U 85040A   25110.31546412  .00000145  00000+0 -34412-5 0  9995
2 15738  62.4339 236.6577 6863650 252.9041  26.3740  2.55668003330436
MOLNIYA 3-27            
1 16393U 85117A   25108.94712133 -.00000072  00000+0 -56874-2 0  9992
2 16393  62.6041 289.8333 7164400 247.4913  26.1884  2.12404033296196
MOLNIYA 3-31            
1 17328U 87008A   25109.15158191 -.00000761  00000+0 -42188-3 0  9993
2 17328  62.7878 340.6381 7429076 255.1909  18.9704  2.00651339276667
MOLNIYA 1-71            
1 18946U 88017A   25101.98862287 -.00000832  00000+0  17539-2 0  9991
2 18946  62.2609 326.1057 7458197 261.4081  16.0751  2.00660410271753
MOLNIYA 1-75            
1 19807U 89014A   25107.62852879 -.00000917  00000+0  00000+0 0  9995
2 19807  63.7743 181.5526 6639247 259.0372  25.2566  2.00325170264750
MOLNIYA 1-80            
1 21118U 91012A   25109.46565414  .00000136  00000+0  00000+0 0  9996
2 21118  64.9270 231.0969 6368657 263.0032  25.8164  2.05244686252260
MOLNIYA 3-40            
1 21196U 91022A   25109.23600142 -.00000598  00000+0  00000+0 0  9999
2 21196  64.7380 225.3019 6423031 260.4009  26.7141  2.03008380250733
MOLNIYA 1-81            
1 21426U 91043A   25109.35914027  .00000177  00000+0  00000+0 0  9993
2 21426  63.4528 223.1039 6759922 261.2200  22.8947  2.00615546247967
MOLNIYA 3-41            
1 21706U 91065A   25108.83953179 -.00000772  00000+0  16597-5 0  9997
2 21706  63.5993  29.8091 7375150 250.9934  21.6876  2.04381350248046
MOLNIYA 3-42            
1 22178U 92067A   25110.28587037  .00000096  00000+0  00000+0 0  9996
2 22178  64.6059 101.0064 6786100 251.4532  28.1697  2.20434181247397
MOLNIYA 1-86            
1 22671U 93035A   25110.19394553  .00000896  00000+0  79933-3 0  9992
2 22671  63.0412 349.3291 4889178  24.7080 352.5047  5.64244124410691
MOLNIYA 1-87            
1 22949U 93079A   25108.22176706  .00000285  00000+0  00000+0 0  9994
2 22949  65.0226 330.4254 6933501 274.5120  15.8213  2.02875151 95946
MOLNIYA 1-88            
1 23420U 94081A   25109.28332425 -.00000030  00000+0  00000+0 0  9991
2 23420  64.3957 321.9095 5901810 264.5989  29.5446  3.34490903148382
MOLNIYA 3-47            
1 23642U 95042A   25108.66151361  .00000356  00000+0  00000+0 0  9994
2 23642  65.0248 313.4830 6878525 274.5734  16.1962  2.01975863217948
MOLNIYA 1-90            
1 24960U 97054A   25108.53087600 -.00000030  00000+0 -23630-2 0  9991
2 24960  64.3826 291.6587 6030609 287.2916  17.8618  3.18687008241020
MOLNIYA 1-91            
1 25485U 98054A   25109.86440164 -.00000016  00000+0  00000+0 0  9996
2 25485  64.4509 347.7794 6797926 288.0342  12.7649  2.36441176202904
MOLNIYA 3-50            
1 25847U 99036A   25109.29649803  .00000203  00000+0 -29789-2 0  9993
2 25847  63.5128 199.4167 6839678 280.4960  14.6932  2.00641340188918
